{"type": "FeatureCollection", "features": [ {"type": "Feature", "properties": {"norad_id": 34001, "name": "COSMOS 2251 DEB", "group": "cosmos-2251-debris", "lat": 74.02707039288354, "lon": 30.287455317297102, "alt_km": 755.342451276907, "timestamp": "2025-12-02T23:34:15.910449+00:00", "meta": {"OBJECT_NAME": "COSMOS 2251 DEB", "OBJECT_ID": "1993-036GL", "EPOCH": "2025-12-02T08:49:29.292960", "MEAN_MOTION": 14.37075966, "ECCENTRICITY": 0.0019484, "INCLINATION": 74.0382, "RA_OF_ASC_NODE": 300.6592, "ARG_OF_PERICENTER": 24.229, "MEAN_ANOMALY": 128.3227, "EPHEMERIS_TYPE": 0, "CLASSIFICATION_TYPE": "U", "NORAD_CAT_ID": 34001, "ELEMENT_SET_NO": 999, "REV_AT_EPOCH": 87997, "BSTAR": 0.00028506, "MEAN_MOTION_DOT": 8.22e-06, "MEAN_MOTION_DDOT": 0}, "tle": {"line1": "1 34001U 93036GL  25336.36770015  .00000822  00000+0  28506-3 0  9992", "line2": "2 34001  74.0382 300.6592 0019484  24.2290 128.3227 14.37075966879977"}}, "geometry": {"type": "Point", "coordinates": [30.287455317297102, 74.02707039288354]}}, {"type": "Feature", "properties": {"norad_id": 34003, "name": "COSMOS 2251 DEB", "group": "cosmos-2251-debris", "lat": 34.06325701056579, "lon": -47.30634872162407, "alt_km": 758.0692978802708, "timestamp": "2025-12-02T23:34:15.910460+00:00", "meta": {"OBJECT_NAME": "COSMOS 2251 DEB", "OBJECT_ID": "1993-036GN", "EPOCH": "2025-12-02T07:47:40.877088", "MEAN_MOTION": 13.84056289, "ECCENTRICITY": 0.0273639, "INCLINATION": 74.0778, "RA_OF_ASC_NODE": 302.6716, "ARG_OF_PERICENTER": 57.1499, "MEAN_ANOMALY": 305.565, "EPHEMERIS_TYPE": 0, "CLASSIFICATION_TYPE": "U", "NORAD_CAT_ID": 34003, "ELEMENT_SET_NO": 999, "REV_AT_EPOCH": 84281, "BSTAR": 0.0021625, "MEAN_MOTION_DOT": 3.194e-05, "MEAN_MOTION_DDOT": 0}, "tle": {"line1": "1 34003U 93036GN  25336.32477867  .00003194  00000+0  21625-2 0  9998", "line2": "2 34003  74.0778 302.6716 0273639  57.1499 305.5650 13.84056289842818"}}, "geometry": {"type": "Point", "coordinates": [-47.30634872162407, 34.06325701056579]}}, {"type": "Feature", "properties": {"norad_id": 34004, "name": "COSMOS 2251 DEB", "group": "cosmos-2251-debris", "lat": -71.25221227748123, "lon": -86.098502620966, "alt_km": 726.3823251120748, "timestamp": "2025-12-02T23:34:15.910470+00:00", "meta": {"OBJECT_NAME": "COSMOS 2251 DEB", "OBJECT_ID": "1993-036GP", "EPOCH": "2025-12-02T10:40:50.454624", "MEAN_MOTION": 14.48838361, "ECCENTRICITY": 0.0033062, "INCLINATION": 74.0352, "RA_OF_ASC_NODE": 332.4114, "ARG_OF_PERICENTER": 346.1491, "MEAN_ANOMALY": 13.8758, "EPHEMERIS_TYPE": 0, "CLASSIFICATION_TYPE": "U", "NORAD_CAT_ID": 34004, "ELEMENT_SET_NO": 999, "REV_AT_EPOCH": 87881, "BSTAR": 0.0016737, "MEAN_MOTION_DOT": 6.348e-05, "MEAN_MOTION_DDOT": 0}, "tle": {"line1": "1 34004U 93036GP  25336.44502841  .00006348  00000+0  16737-2 0  9995", "line2": "2 34004  74.0352 332.4114 0033062 346.1491  13.8758 14.48838361878814"}}, "geometry": {"type": "Point", "coordinates": [-86.098502620966, -71.25221227748123]}}, {"type": "Feature", "properties": {"norad_id": 34005, "name": "COSMOS 2251 DEB", "group": "cosmos-2251-debris", "lat": 40.82844794161368, "lon": 37.36348448556486, "alt_km": 765.9349122382846, "timestamp": "2025-12-02T23:34:15.910480+00:00", "meta": {"OBJECT_NAME": "COSMOS 2251 DEB", "OBJECT_ID": "1993-036GQ", "EPOCH": "2025-12-02T12:04:40.456128", "MEAN_MOTION": 14.40291974, "ECCENTRICITY": 0.0020436, "INCLINATION": 74.0452, "RA_OF_ASC_NODE": 232.5588, "ARG_OF_PERICENTER": 352.6937, "MEAN_ANOMALY": 182.2209, "EPHEMERIS_TYPE": 0, "CLASSIFICATION_TYPE": "U", "NORAD_CAT_ID": 34005, "ELEMENT_SET_NO": 999, "REV_AT_EPOCH": 88231, "BSTAR": 0.00016309, "MEAN_MOTION_DOT": 4.91e-06, "MEAN_MOTION_DDOT": 0}, "tle": {"line1": "1 34005U 93036GQ  25336.50324602  .00000491  00000+0  16309-3 0  9999", "line2": "2 34005  74.0452 232.5588 0020436 352.6937 182.2209 14.40291974882316"}}, "geometry": {"type": "Point", "coordinates": [37.36348448556486, 40.82844794161368]}}, {"type": "Feature", "properties": {"norad_id": 34006, "name": "COSMOS 2251 DEB", "group": "cosmos-2251-debris", "lat": -47.379769182517094, "lon": 144.81772985032245, "alt_km": 601.7943788665516, "timestamp": "2025-12-02T23:34:15.910490+00:00", "meta": {"OBJECT_NAME": "COSMOS 2251 DEB", "OBJECT_ID": "1993-036GR", "EPOCH": "2025-12-01T15:58:26.262336", "MEAN_MOTION": 14.93524552, "ECCENTRICITY": 0.00124703, "INCLINATION": 74.0552, "RA_OF_ASC_NODE": 165.5633, "ARG_OF_PERICENTER": 125.7896, "MEAN_ANOMALY": 308.5222, "EPHEMERIS_TYPE": 0, "CLASSIFICATION_TYPE": "U", "NORAD_CAT_ID": 34006, "ELEMENT_SET_NO": 999, "REV_AT_EPOCH": 88503, "BSTAR": 0.002930655, "MEAN_MOTION_DOT": 0.00031024, "MEAN_MOTION_DDOT": 0}, "tle": {"line1": "1 34006U 93036GR  25335.66558174  .00031024  00000+0  29307-2 0  9996", "line2": "2 34006  74.0552 165.5633 0012470 125.7896 308.5222 14.93524552885035"}}, "geometry": {"type": "Point", "coordinates": [144.81772985032245, -47.379769182517094]}}, {"type": "Feature", "properties": {"norad_id": 34007, "name": "COSMOS 2251 DEB", "group": "cosmos-2251-debris", "lat": -21.805437685709126, "lon": -167.7371563690733, "alt_km": 666.6949361252118, "timestamp": "2025-12-02T23:34:15.910500+00:00", "meta": {"OBJECT_NAME": "COSMOS 2251 DEB", "OBJECT_ID": "1993-036GS", "EPOCH": "2025-12-02T11:10:38.832672", "MEAN_MOTION": 14.64668438, "ECCENTRICITY": 0.0044814, "INCLINATION": 74.0199, "RA_OF_ASC_NODE": 6.6729, "ARG_OF_PERICENTER": 144.8084, "MEAN_ANOMALY": 215.6058, "EPHEMERIS_TYPE": 0, "CLASSIFICATION_TYPE": "U", "NORAD_CAT_ID": 34007, "ELEMENT_SET_NO": 999, "REV_AT_EPOCH": 88929, "BSTAR": 0.0008436, "MEAN_MOTION_DOT": 4.525e-05, "MEAN_MOTION_DDOT": 0}, "tle": {"line1": "1 34007U 93036GS  25336.46572723  .00004525  00000+0  84360-3 0  9999", "line2": "2 34007  74.0199   6.6729 0044814 144.8084 215.6058 14.64668438889299"}}, "geometry": {"type": "Point", "coordinates": [-167.7371563690733, -21.805437685709126]}}, {"type": "Feature", "properties": {"norad_id": 34008, "name": "COSMOS 2251 DEB", "group": "cosmos-2251-debris", "lat": -60.86659465168269, "lon": -42.55428142693099, "alt_km": 777.2032637871316, "timestamp": "2025-12-02T23:34:15.910510+00:00", "meta": {"OBJECT_NAME": "COSMOS 2251 DEB", "OBJECT_ID": "1993-036GT", "EPOCH": "2025-12-02T11:01:20.807040", "MEAN_MOTION": 14.33134536, "ECCENTRICITY": 0.0023927, "INCLINATION": 74.0343, "RA_OF_ASC_NODE": 349.3076, "ARG_OF_PERICENTER": 346.5546, "MEAN_ANOMALY": 131.8983, "EPHEMERIS_TYPE": 0, "CLASSIFICATION_TYPE": "U", "NORAD_CAT_ID": 34008, "ELEMENT_SET_NO": 999, "REV_AT_EPOCH": 87817, "BSTAR": 0.00016421, "MEAN_MOTION_DOT": 4.26e-06, "MEAN_MOTION_DDOT": 0}, "tle": {"line1": "1 34008U 93036GT  25336.45926860  .00000426  00000+0  16421-3 0  9993", "line2": "2 34008  74.0343 349.3076 0023927 346.5546 131.8983 14.33134536878173"}}, "geometry": {"type": "Point", "coordinates": [-42.55428142693099, -60.86659465168269]}}, {"type": "Feature", "properties": {"norad_id": 34009, "name": "COSMOS 2251 DEB", "group": "cosmos-2251-debris", "lat": -30.75032646552069, "lon": -15.035172849033735, "alt_km": 789.7554795147562, "timestamp": "2025-12-02T23:34:15.910521+00:00", "meta": {"OBJECT_NAME": "COSMOS 2251 DEB", "OBJECT_ID": "1993-036GU", "EPOCH": "2025-12-02T12:42:31.933728", "MEAN_MOTION": 14.33209297, "ECCENTRICITY": 0.002625, "INCLINATION": 74.0372, "RA_OF_ASC_NODE": 355.5962, "ARG_OF_PERICENTER": 68.5589, "MEAN_ANOMALY": 85.4733, "EPHEMERIS_TYPE": 0, "CLASSIFICATION_TYPE": "U", "NORAD_CAT_ID": 34009, "ELEMENT_SET_NO": 999, "REV_AT_EPOCH": 87799, "BSTAR": 0.00017577, "MEAN_MOTION_DOT": 4.59e-06, "MEAN_MOTION_DDOT": 0}, "tle": {"line1": "1 34009U 93036GU  25336.52953627  .00000459  00000+0  17577-3 0  9992", "line2": "2 34009  74.0372 355.5962 0026250  68.5589  85.4733 14.33209297877992"}}, "geometry": {"type": "Point", "coordinates": [-15.035172849033735, -30.75032646552069]}}, {"type": "Feature", "properties": {"norad_id": 34010, "name": "COSMOS 2251 DEB", "group": "cosmos-2251-debris", "lat": 50.19762647786433, "lon": 103.58340675111656, "alt_km": 512.1860034010851, "timestamp": "2025-12-02T23:34:15.910531+00:00", "meta": {"OBJECT_NAME": "COSMOS 2251 DEB", "OBJECT_ID": "1993-036GV", "EPOCH": "2025-12-02T08:45:34.659072", "MEAN_MOTION": 15.15942524, "ECCENTRICITY": 0.0004452, "INCLINATION": 73.9998, "RA_OF_ASC_NODE": 305.0151, "ARG_OF_PERICENTER": 51.3088, "MEAN_ANOMALY": 308.8504, "EPHEMERIS_TYPE": 0, "CLASSIFICATION_TYPE": "U", "NORAD_CAT_ID": 34010, "ELEMENT_SET_NO": 999, "REV_AT_EPOCH": 89128, "BSTAR": 0.0045435, "MEAN_MOTION_DOT": 0.0008821, "MEAN_MOTION_DDOT": 0}, "tle": {"line1": "1 34010U 93036GV  25336.36498448  .00088210  00000+0  45435-2 0  9995", "line2": "2 34010  73.9998 305.0151 0004452  51.3088 308.8504 15.15942524891284"}}, "geometry": {"type": "Point", "coordinates": [103.58340675111656, 50.19762647786433]}}, {"type": "Feature", "properties": {"norad_id": 34011, "name": "COSMOS 2251 DEB", "group": "cosmos-2251-debris", "lat": 32.7972305956942, "lon": -1.099813158759606, "alt_km": 731.5329326109431, "timestamp": "2025-12-02T23:34:15.910541+00:00", "meta": {"OBJECT_NAME": "COSMOS 2251 DEB", "OBJECT_ID": "1993-036GW", "EPOCH": "2025-12-02T11:45:19.616832", "MEAN_MOTION": 14.41689488, "ECCENTRICITY": 0.0035171, "INCLINATION": 74.0147, "RA_OF_ASC_NODE": 349.1686, "ARG_OF_PERICENTER": 76.1724, "MEAN_ANOMALY": 284.3341, "EPHEMERIS_TYPE": 0, "CLASSIFICATION_TYPE": "U", "NORAD_CAT_ID": 34011, "ELEMENT_SET_NO": 999, "REV_AT_EPOCH": 87768, "BSTAR": 0.00094856, "MEAN_MOTION_DOT": 3.09e-05, "MEAN_MOTION_DDOT": 0}, "tle": {"line1": "1 34011U 93036GW  25336.48981038  .00003090  00000+0  94856-3 0  9996", "line2": "2 34011  74.0147 349.1686 0035171  76.1724 284.3341 14.41689488877689"}}, "geometry": {"type": "Point", "coordinates": [-1.099813158759606, 32.7972305956942]}}]}